{
    "links": {
        "self": "http://www.neowsapp.com/rest/v1/neo/3802098?api_key=iIulBulltgU6a56xZRHN4H3l9WmuAYTsLGpBGhQ2"
    },
    "id": "3802098",
    "neo_reference_id": "3802098",
    "name": "(2018 FF5)",
    "designation": "2018 FF5",
    "nasa_jpl_url": "http://ssd.jpl.nasa.gov/sbdb.cgi?sstr=3802098",
    "absolute_magnitude_h": 28.0,
    "estimated_diameter": {
        "kilometers": {
            "estimated_diameter_min": 0.0066765941,
            "estimated_diameter_max": 0.0149293183
        },
        "meters": {
            "estimated_diameter_min": 6.676594135,
            "estimated_diameter_max": 14.9293183439
        },
        "miles": {
            "estimated_diameter_min": 0.004148642,
            "estimated_diameter_max": 0.0092766455
        },
        "feet": {
            "estimated_diameter_min": 21.9048371017,
            "estimated_diameter_max": 48.9807047955
        }
    },
    "is_potentially_hazardous_asteroid": false,
    "close_approach_data": [
        {
            "close_approach_date": "2018-03-19",
            "close_approach_date_full": "2018-Mar-19 20:59",
            "epoch_date_close_approach": 1521493140000,
            "relative_velocity": {
                "kilometers_per_second": "9.0569851699",
                "kilometers_per_hour": "32605.1466116576",
                "miles_per_hour": "20259.5701265602"
            },
            "miss_distance": {
                "astronomical": "0.0098943075",
                "lunar": "3.8488856175",
                "kilometers": "1480167.327125025",
                "miles": "919733.328474345"
            },
            "orbiting_body": "Moon"
        },
        {
            "close_approach_date": "2018-03-20",
            "close_approach_date_full": "2018-Mar-20 02:46",
            "epoch_date_close_approach": 1521513960000,
            "relative_velocity": {
                "kilometers_per_second": "8.7512404634",
                "kilometers_per_hour": "31504.4656683504",
                "miles_per_hour": "19575.649792648"
            },
            "miss_distance": {
                "astronomical": "0.009186269",
                "lunar": "3.573458641",
                "kilometers": "1374246.27564703",
                "miles": "853917.039027814"
            },
            "orbiting_body": "Earth"
        },
        {
            "close_approach_date": "2021-01-04",
            "close_approach_date_full": "2021-Jan-04 21:05",
            "epoch_date_close_approach": 1609794300000,
            "relative_velocity": {
                "kilometers_per_second": "13.6988160327",
                "kilometers_per_hour": "49315.7377177297",
                "miles_per_hour": "30642.8815835527"
            },
            "miss_distance": {
                "astronomical": "0.1749680245",
                "lunar": "68.0625615305",
                "kilometers": "26174843.783307815",
                "miles": "16264293.741625247"
            },
            "orbiting_body": "Earth"
        }
    ],
    "orbital_data": {
        "orbit_id": "1",
        "orbit_determination_date": "2018-03-28 09:42:03",
        "first_observation_date": "2018-03-22",
        "last_observation_date": "2018-03-28",
        "data_arc_in_days": 6,
        "observations_used": 16,
        "orbit_uncertainty": "7",
        "minimum_orbit_intersection": ".000858336",
        "jupiter_tisserand_invariant": "3.593",
        "epoch_osculation": "2458200.5",
        "eccentricity": ".5330615871334129",
        "semi_major_axis": "2.056142358263832",
        "inclination": "3.125844767720729",
        "ascending_node_longitude": "357.3621117284501",
        "orbital_period": "1076.906992442851",
        "perihelion_distance": ".9600918493954753",
        "perihelion_argument": "153.0494597348355",
        "aphelion_distance": "3.152192867132189",
        "perihelion_time": "2458175.076863045545",
        "mean_anomaly": "8.498718429567155",
        "mean_motion": ".334290707114249",
        "equinox": "J2000",
        "orbit_class": {
            "orbit_class_type": "APO",
            "orbit_class_description": "Near-Earth asteroid orbits which cross the Earth’s orbit similar to that of 1862 Apollo",
            "orbit_class_range": "a (semi-major axis) > 1.0 AU; q (perihelion) < 1.017 AU"
        }
    },
    "is_sentry_object": false
}